GLOBALSTAR M024         
1 25883U 99043A   25025.32717130 -.00000073  00000+0 -29487-3 0  9993
2 25883  52.0062 342.9655 0001122 219.0432 298.1906 11.10166516 99027
GLOBALSTAR M027         
1 25884U 99043B   25025.48638583 -.00000061  00000+0  84414-4 0  9993
2 25884  52.0224  56.5430 0021697 121.6720 238.6192 11.04370682125473
GLOBALSTAR M054         
1 25885U 99043C   25026.01121950 -.00000039  00000+0  82436-3 0  9995
2 25885  52.0108 206.5348 0004645 299.9544 234.4578 11.39216197103170
GLOBALSTAR M053         
1 25886U 99043D   25025.63512957 -.00000080  00000+0 -32817-3 0  9999
2 25886  51.9969 146.6196 0003763 181.6006 279.4822 11.27662630103365
GLOBALSTAR M058         
1 25907U 99049A   25025.73140546  .00000021  00000+0  14163-2 0  9997
2 25907  51.9935 129.5685 0001629  33.1640 326.9297 11.93194825524538
GLOBALSTAR M050         
1 25908U 99049B   25025.67645006 -.00000088  00000+0  28332-5 0  9992
2 25908  51.9978 148.0369 0010151 108.6054   0.6093 12.07448504130971
GLOBALSTAR M033         
1 25909U 99049C   25026.15493221 -.00000166  00000+0 -71085-3 0  9996
2 25909  51.9937  28.3652 0012931 331.1891  28.8241 12.20291396151129
GLOBALSTAR M055         
1 25910U 99049D   25025.49284504 -.00000058  00000+0  30993-3 0  9998
2 25910  52.0032  47.9236 0007195 193.4357 166.6304 12.29419582150955
